ADRAS-J                 
1 58992U 24034A   24205.47309823  .00006607  00000+0  60963-3 0  9990
2 58992  98.2139 180.1528 0041844 290.0475  69.6242 14.94342945 23289
